IONOSFERA-M 2           
1 61736U 24199B   26155.28813697  .00000080  00000+0  55211-4 0  9996
2 61736  98.7186  28.5063 0001535  50.5097 309.6217 14.22755093128993
PRSC-EO1                
1 62725U 25012A   26154.27983293  .00009097  00000+0  45362-3 0  9990
2 62725  97.4226 227.0114 0004074 321.0187  39.0752 15.17750222 76087
BIOMASS                 
1 63772U 25090A   26155.07885306  .00000694  00000+0  13088-3 0  9998
2 63772  98.0746 342.5882 0001397  63.8966 296.2382 14.67537224 58760
GOSAT-GW (IBUKI GW)     
1 64694U 25141A   26155.23566168  .00000937  00000+0  17362-3 0  9998
2 64694  98.0569  92.7635 0001420  82.8338 277.3028 14.67552230 49949
IONOSFERA-M 3           
1 64876U 25155A   26155.29428264  .00000077  00000+0  54989-4 0  9997
2 64876  98.6019 117.5244 0000220 194.5835 165.5336 14.21484218 44573
IONOSFERA-M 4           
1 64877U 25155B   26155.25875568  .00000077  00000+0  55021-4 0  9995
2 64877  98.6025 117.4073 0000617 108.7600 251.3644 14.21486328 44566
MICROCARB               
1 64899U 25156A   26155.10123178  .00000670  00000+0  11375-3 0  9999
2 64899  97.9831 232.4719 0015320 317.6941  42.3084 14.72311835 46045
CO3D 3                  
1 64900U 25156B   26155.28636534  .00003529  00000+0  16609-3 0  9997
2 64900  97.4326 234.1647 0000953 142.6428 217.4873 15.20198523 47574
CO3D 4                  
1 64901U 25156C   26155.28653289  .00005687  00000+0  26562-3 0  9990
2 64901  97.4328 234.1648 0001045  39.2400 320.8911 15.20201049 47572
CO3D 2                  
1 64902U 25156D   26155.25317380  .00005218  00000+0  24398-3 0  9992
2 64902  97.4327 234.0312 0001314 119.3951 240.7415 15.20205422 47566
CO3D 1                  
1 64903U 25156E   26155.25332430  .00005255  00000+0  24574-3 0  9993
2 64903  97.4326 234.0313 0001098 119.7472 240.3873 15.20197002 47566
PRSC-S1                 
1 65055U 25164A   26154.93770247  .00005313  00000+0  36643-3 0  9992
2 65055  41.1316   2.4261 0007637 267.4450  92.5490 15.06328784 46435
SENTINEL-6B             
1 66514U 25264A   26155.12522570 -.00000057  00000+0  16106-4 0  9994
2 66514  66.0384 162.3085 0008059 269.2910  90.7182 12.80929601 25492
CAS500-3                
1 66655U 25274F   26154.29821958  .00001529  00000+0  17126-3 0  9996
2 66655  97.7446  82.6656 0005900 147.8006 212.3573 14.88285530 28085
CSG-3                   
1 67304U 26001A   26155.30451010  .00000421  00000+0  59453-4 0  9998
2 67304  97.8886 339.0932 0001303  93.2972 266.8390 14.82159942 22559
PRSC-E03                
1 68835U 26092A   26155.19797781  .00002200  00000+0  15293-3 0  9993
2 68835  37.9993 166.2724 0005360 277.8697  82.1456 15.06606016  5990
CAS500-2                
1 69013U 26100AK  26154.26636628  .00006342  00000+0  29353-3 0  9994
2 69013  97.4080  52.3641 0011661  77.8085 282.4456 15.20411306  4693
