OBJECT_NAME,OBJECT_ID,EPOCH,MEAN_MOTION,ECCENTRICITY,INCLINATION,RA_OF_ASC_NODE,ARG_OF_PERICENTER,MEAN_ANOMALY,EPHEMERIS_TYPE,CLASSIFICATION_TYPE,NORAD_CAT_ID,ELEMENT_SET_NO,REV_AT_EPOCH,BSTAR,MEAN_MOTION_DOT,MEAN_MOTION_DDOT
IONOSFERA-M 2,2024-199B,2026-06-04T06:54:55.034208,14.22755093,.00015351,98.7186,28.5063,50.5097,309.6217,0,U,61736,999,12899,.55210878E-4,.8E-6,0
PRSC-EO1,2025-012A,2026-06-03T06:42:57.565152,15.17750222,.0004074,97.4226,227.0114,321.0187,39.0752,0,U,62725,999,7608,.45362E-3,.9097E-4,0
BIOMASS,2025-090A,2026-06-04T01:53:32.904384,14.67537224,.00013977,98.0746,342.5882,63.8966,296.2382,0,U,63772,999,5876,.13087807E-3,.694E-5,0
GOSAT-GW (IBUKI GW),2025-141A,2026-06-04T05:39:21.169152,14.67552230,.00014206,98.0569,92.7635,82.8338,277.3028,0,U,64694,999,4994,.17361823E-3,.937E-5,0
IONOSFERA-M 3,2025-155A,2026-06-04T07:03:46.020096,14.21484218,.00002202,98.6019,117.5244,194.5835,165.5336,0,U,64876,999,4457,.54989394E-4,.77E-6,0
IONOSFERA-M 4,2025-155B,2026-06-04T06:12:36.490752,14.21486328,.00006171,98.6025,117.4073,108.7600,251.3644,0,U,64877,999,4456,.5502067E-4,.77E-6,0
MICROCARB,2025-156A,2026-06-04T02:25:46.425792,14.72311835,.00153208,97.9831,232.4719,317.6941,42.3084,0,U,64899,999,4604,.11374772E-3,.67E-5,0
CO3D 3,2025-156B,2026-06-04T06:52:21.965376,15.20198523,.00009539,97.4326,234.1647,142.6428,217.4873,0,U,64900,999,4757,.16609469E-3,.3529E-4,0
CO3D 4,2025-156C,2026-06-04T06:52:36.441696,15.20201049,.00010455,97.4328,234.1648,39.2400,320.8911,0,U,64901,999,4757,.26561877E-3,.5687E-4,0
CO3D 2,2025-156D,2026-06-04T06:04:34.216320,15.20205422,.00013142,97.4327,234.0312,119.3951,240.7415,0,U,64902,999,4756,.24398235E-3,.5218E-4,0
CO3D 1,2025-156E,2026-06-04T06:04:47.219520,15.20197002,.00010989,97.4326,234.0313,119.7472,240.3873,0,U,64903,999,4756,.24573982E-3,.5255E-4,0
PRSC-S1,2025-164A,2026-06-03T22:30:17.493408,15.06328784,.00076379,41.1316,2.4261,267.4450,92.5490,0,U,65055,999,4643,.36642822E-3,.5313E-4,0
SENTINEL-6B,2025-264A,2026-06-04T03:00:19.500480,12.80929601,.00080594,66.0384,162.3085,269.2910,90.7182,0,U,66514,999,2549,.16106258E-4,-.57E-6,0
CAS500-3,2025-274F,2026-06-03T07:09:26.171712,14.88285530,.00059004,97.7446,82.6656,147.8006,212.3573,0,U,66655,999,2808,.17126146E-3,.1529E-4,0
CSG-3,2026-001A,2026-06-04T07:18:29.672640,14.82159942,.00013037,97.8886,339.0932,93.2972,266.8390,0,U,67304,999,2255,.59452757E-4,.421E-5,0
PRSC-E03,2026-092A,2026-06-04T04:45:05.282784,15.06606016,.00053606,37.9993,166.2724,277.8697,82.1456,0,U,68835,999,599,.15293001E-3,.22E-4,0
CAS500-2,2026-100AK,2026-06-03T06:23:34.046592,15.20411306,.00116619,97.4080,52.3641,77.8085,282.4456,0,U,69013,999,469,.29353194E-3,.6342E-4,0
